start=new Date('2023-04-11T00:00:00.000Z').valueOf();
sats=[{"MEAN_MOTION_DOT":"0.00003389","OBJECT_ID":"2022-045S","DECAY_DATE":null,"OBJECT_NAME":"STARLINK-3826","REV_AT_EPOCH":"5517","MEAN_MOTION":"15.08844517","ELEMENT_SET_NO":"999","EPOCH":"2023-04-10T20:04:40.228608","CLASSIFICATION_TYPE":"U","APOAPSIS":"540.663","BSTAR":"0.00023089000000","PERIAPSIS":"538.800","MEAN_ANOMALY":"271.2495","MEAN_ELEMENT_THEORY":"SGP4","MEAN_MOTION_DDOT":"0.0000000000000","CENTER_NAME":"EARTH","TIME_SYSTEM":"UTC","TLE_LINE2":"2 52347  53.2157 294.9405 0001347  88.8652 271.2495 15.08844517 55172","LAUNCH_DATE":"2022-04-29","RA_OF_ASC_NODE":"294.9405","EPHEMERIS_TYPE":"0","REF_FRAME":"TEME","NORAD_CAT_ID":"52347","SEMIMAJOR_AXIS":"6917.867","RCS_SIZE":"LARGE","SITE":"AFETR","OBJECT_TYPE":"PAYLOAD","GP_ID":"229881105","FILE":"3885363","PERIOD":"95.437","INCLINATION":"53.2157","ECCENTRICITY":"0.00013470","TLE_LINE1":"1 52347U 22045S   23100.83657672  .00003389  00000-0  23089-3 0  9992","ARG_OF_PERICENTER":"88.8652","COUNTRY_CODE":"US"},{"MEAN_MOTION":"15.08848522","ELEMENT_SET_NO":"999","CLASSIFICATION_TYPE":"U","EPOCH":"2023-04-10T19:38:10.250016","MEAN_MOTION_DOT":"0.00005110","DECAY_DATE":null,"OBJECT_ID":"2022-045T","OBJECT_NAME":"STARLINK-3829","REV_AT_EPOCH":"5517","MEAN_MOTION_DDOT":"0.0000000000000","TIME_SYSTEM":"UTC","CENTER_NAME":"EARTH","TLE_LINE2":"2 52348  53.2160 295.0243 0001231  86.4430 273.6703 15.08848522 55177","APOAPSIS":"540.571","BSTAR":"0.00033882000000","MEAN_ANOMALY":"273.6703","PERIAPSIS":"538.868","MEAN_ELEMENT_THEORY":"SGP4","REF_FRAME":"TEME","NORAD_CAT_ID":"52348","RCS_SIZE":"LARGE","SEMIMAJOR_AXIS":"6917.854","OBJECT_TYPE":"PAYLOAD","SITE":"AFETR","GP_ID":"229879865","LAUNCH_DATE":"2022-04-29","RA_OF_ASC_NODE":"295.0243","EPHEMERIS_TYPE":"0","PERIOD":"95.437","INCLINATION":"53.2160","ECCENTRICITY":"0.00012310","TLE_LINE1":"1 52348U 22045T   23100.81817419  .00005110  00000-0  33882-3 0  9994","ARG_OF_PERICENTER":"86.4430","COUNTRY_CODE":"US","FILE":"3885363"},{"NORAD_CAT_ID":"52349","REF_FRAME":"TEME","GP_ID":"229880112","SEMIMAJOR_AXIS":"6917.845","RCS_SIZE":"LARGE","OBJECT_TYPE":"PAYLOAD","SITE":"AFETR","LAUNCH_DATE":"2022-04-29","RA_OF_ASC_NODE":"294.9768","EPHEMERIS_TYPE":"0","INCLINATION":"53.2160","PERIOD":"95.437","COUNTRY_CODE":"US","ECCENTRICITY":"0.00017670","TLE_LINE1":"1 52349U 22045U   23100.82921283  .00004171  00000-0  27991-3 0  9991","ARG_OF_PERICENTER":"95.8194","FILE":"3885363","MEAN_MOTION":"15.08851723","ELEMENT_SET_NO":"999","EPOCH":"2023-04-10T19:54:03.988512","CLASSIFICATION_TYPE":"U","MEAN_MOTION_DOT":"0.00004171","OBJECT_NAME":"STARLINK-3819","REV_AT_EPOCH":"5517","OBJECT_ID":"2022-045U","DECAY_DATE":null,"MEAN_MOTION_DDOT":"0.0000000000000","TIME_SYSTEM":"UTC","CENTER_NAME":"EARTH","TLE_LINE2":"2 52349  53.2160 294.9768 0001767  95.8194 264.2999 15.08851723 55173","PERIAPSIS":"538.487","MEAN_ANOMALY":"264.2999","APOAPSIS":"540.932","BSTAR":"0.00027991000000","MEAN_ELEMENT_THEORY":"SGP4"},{"INCLINATION":"53.2151","PERIOD":"95.437","COUNTRY_CODE":"US","ECCENTRICITY":"0.00007670","TLE_LINE1":"1 52350U 22045V   23100.81449558  .00001296  00000-0  99496-4 0  9997","ARG_OF_PERICENTER":"82.2372","FILE":"3885363","NORAD_CAT_ID":"52350","REF_FRAME":"TEME","GP_ID":"229880866","RCS_SIZE":"LARGE","SEMIMAJOR_AXIS":"6917.865","SITE":"AFETR","OBJECT_TYPE":"PAYLOAD","LAUNCH_DATE":"2022-04-29","EPHEMERIS_TYPE":"0","RA_OF_ASC_NODE":"295.0440","MEAN_MOTION_DDOT":"0.0000000000000","TIME_SYSTEM":"UTC","CENTER_NAME":"EARTH","TLE_LINE2":"2 52350  53.2151 295.0440 0000767  82.2372 277.8707 15.08845079 55175","PERIAPSIS":"539.199","MEAN_ANOMALY":"277.8707","APOAPSIS":"540.260","BSTAR":"0.00009949600000","MEAN_ELEMENT_THEORY":"SGP4","MEAN_MOTION":"15.08845079","ELEMENT_SET_NO":"999","CLASSIFICATION_TYPE":"U","EPOCH":"2023-04-10T19:32:52.418112","MEAN_MOTION_DOT":"0.00001296","OBJECT_NAME":"STARLINK-3754","REV_AT_EPOCH":"5517","DECAY_DATE":null,"OBJECT_ID":"2022-045V"},{"MEAN_MOTION_DOT":"0.00006347","DECAY_DATE":null,"OBJECT_ID":"2022-045X","REV_AT_EPOCH":"5517","OBJECT_NAME":"STARLINK-3838","ELEMENT_SET_NO":"999","MEAN_MOTION":"15.08856669","CLASSIFICATION_TYPE":"U","EPOCH":"2023-04-10T19:16:58.568160","BSTAR":"0.00041631000000","APOAPSIS":"540.500","PERIAPSIS":"538.889","MEAN_ANOMALY":"274.1734","MEAN_ELEMENT_THEORY":"SGP4","TIME_SYSTEM":"UTC","MEAN_MOTION_DDOT":"0.0000000000000","CENTER_NAME":"EARTH","TLE_LINE2":"2 52352  53.2173 295.0914 0001164  85.9391 274.1734 15.08856669 55177","LAUNCH_DATE":"2022-04-29","EPHEMERIS_TYPE":"0","RA_OF_ASC_NODE":"295.0914","NORAD_CAT_ID":"52352","REF_FRAME":"TEME","OBJECT_TYPE":"PAYLOAD","SITE":"AFETR","RCS_SIZE":"LARGE","SEMIMAJOR_AXIS":"6917.829","GP_ID":"229880607","FILE":"3885363","PERIOD":"95.437","INCLINATION":"53.2173","ARG_OF_PERICENTER":"85.9391","ECCENTRICITY":"0.00011640","TLE_LINE1":"1 52352U 22045X   23100.80345565  .00006347  00000-0  41631-3 0  9990","COUNTRY_CODE":"US"},{"LAUNCH_DATE":"2022-04-29","EPHEMERIS_TYPE":"0","RA_OF_ASC_NODE":"295.0593","NORAD_CAT_ID":"52353","REF_FRAME":"TEME","GP_ID":"229879366","SITE":"AFETR","OBJECT_TYPE":"PAYLOAD","SEMIMAJOR_AXIS":"6917.861","RCS_SIZE":"LARGE","FILE":"3885363","INCLINATION":"53.2154","PERIOD":"95.437","COUNTRY_CODE":"US","ARG_OF_PERICENTER":"80.3029","ECCENTRICITY":"0.00012670","TLE_LINE1":"1 52353U 22045Y   23100.81081461  .00001768  00000-0  12914-3 0  9998","MEAN_MOTION_DOT":"0.00001768","REV_AT_EPOCH":"5517","OBJECT_NAME":"STARLINK-3807","DECAY_DATE":null,"OBJECT_ID":"2022-045Y","ELEMENT_SET_NO":"999","MEAN_MOTION":"15.08846261","CLASSIFICATION_TYPE":"U","EPOCH":"2023-04-10T19:27:34.382304","PERIAPSIS":"538.850","MEAN_ANOMALY":"279.8106","BSTAR":"0.00012914000000","APOAPSIS":"540.603","MEAN_ELEMENT_THEORY":"SGP4","TIME_SYSTEM":"UTC","MEAN_MOTION_DDOT":"0.0000000000000","CENTER_NAME":"EARTH","TLE_LINE2":"2 52353  53.2154 295.0593 0001267  80.3029 279.8106 15.08846261 55173"},{"DECAY_DATE":null,"OBJECT_ID":"2022-045Z","REV_AT_EPOCH":"5517","OBJECT_NAME":"STARLINK-3876","MEAN_MOTION_DOT":"0.00001625","EPOCH":"2023-04-10T19:01:04.762272","CLASSIFICATION_TYPE":"U","ELEMENT_SET_NO":"999","MEAN_MOTION":"15.08844799","MEAN_ELEMENT_THEORY":"SGP4","BSTAR":"0.00012012000000","APOAPSIS":"540.474","PERIAPSIS":"538.987","MEAN_ANOMALY":"257.5482","TLE_LINE2":"2 52354  53.2148 295.1363 0001075 102.5631 257.5482 15.08844799 55170","MEAN_MOTION_DDOT":"0.0000000000000","TIME_SYSTEM":"UTC","CENTER_NAME":"EARTH","EPHEMERIS_TYPE":"0","RA_OF_ASC_NODE":"295.1363","LAUNCH_DATE":"2022-04-29","OBJECT_TYPE":"PAYLOAD","SITE":"AFETR","SEMIMAJOR_AXIS":"6917.866","RCS_SIZE":"LARGE","GP_ID":"229879613","NORAD_CAT_ID":"52354","REF_FRAME":"TEME","FILE":"3885363","ARG_OF_PERICENTER":"102.5631","ECCENTRICITY":"0.00010750","TLE_LINE1":"1 52354U 22045Z   23100.79241623  .00001625  00000-0  12012-3 0  9995","COUNTRY_CODE":"US","PERIOD":"95.437","INCLINATION":"53.2148"},{"OBJECT_ID":"2022-045AA","DECAY_DATE":null,"OBJECT_NAME":"STARLINK-3877","REV_AT_EPOCH":"5517","MEAN_MOTION_DOT":"0.00008305","CLASSIFICATION_TYPE":"U","EPOCH":"2023-04-10T19:22:16.890816","MEAN_MOTION":"15.08837007","ELEMENT_SET_NO":"999","MEAN_ELEMENT_THEORY":"SGP4","APOAPSIS":"540.615","BSTAR":"0.00053929000000","PERIAPSIS":"538.894","MEAN_ANOMALY":"268.8098","TLE_LINE2":"2 52355  53.2155 295.0747 0001244  91.3036 268.8098 15.08837007 55178","MEAN_MOTION_DDOT":"0.0000000000000","TIME_SYSTEM":"UTC","CENTER_NAME":"EARTH","EPHEMERIS_TYPE":"0","RA_OF_ASC_NODE":"295.0747","LAUNCH_DATE":"2022-04-29","RCS_SIZE":"LARGE","SEMIMAJOR_AXIS":"6917.890","OBJECT_TYPE":"PAYLOAD","SITE":"AFETR","GP_ID":"229880368","REF_FRAME":"TEME","NORAD_CAT_ID":"52355","FILE":"3885363","TLE_LINE1":"1 52355U 22045AA  23100.80713994  .00008305  00000-0  53929-3 0  9997","ECCENTRICITY":"0.00012440","ARG_OF_PERICENTER":"91.3036","COUNTRY_CODE":"US","PERIOD":"95.438","INCLINATION":"53.2155"},{"CLASSIFICATION_TYPE":"U","EPOCH":"2023-04-10T19:06:23.151456","MEAN_MOTION":"15.08843410","ELEMENT_SET_NO":"999","DECAY_DATE":null,"OBJECT_ID":"2022-045AB","OBJECT_NAME":"STARLINK-3801","REV_AT_EPOCH":"5517","MEAN_MOTION_DOT":"0.00002240","TLE_LINE2":"2 52356  53.2159 295.1475 0001081  89.2048 270.9068 15.08843410 55176","TIME_SYSTEM":"UTC","MEAN_MOTION_DDOT":"0.0000000000000","CENTER_NAME":"EARTH","MEAN_ELEMENT_THEORY":"SGP4","APOAPSIS":"540.483","BSTAR":"0.00015879000000","MEAN_ANOMALY":"270.9068","PERIAPSIS":"538.987","SEMIMAJOR_AXIS":"6917.870","RCS_SIZE":"LARGE","SITE":"AFETR","OBJECT_TYPE":"PAYLOAD","GP_ID":"229881106","REF_FRAME":"TEME","NORAD_CAT_ID":"52356","RA_OF_ASC_NODE":"295.1475","EPHEMERIS_TYPE":"0","LAUNCH_DATE":"2022-04-29","ECCENTRICITY":"0.00010810","TLE_LINE1":"1 52356U 22045AB  23100.79610129  .00002240  00000-0  15879-3 0  9996","ARG_OF_PERICENTER":"89.2048","COUNTRY_CODE":"US","PERIOD":"95.437","INCLINATION":"53.2159","FILE":"3885363"},{"NORAD_CAT_ID":"52357","REF_FRAME":"TEME","RCS_SIZE":"LARGE","SEMIMAJOR_AXIS":"6917.870","SITE":"AFETR","OBJECT_TYPE":"PAYLOAD","GP_ID":"229879866","LAUNCH_DATE":"2022-04-29","RA_OF_ASC_NODE":"295.1049","EPHEMERIS_TYPE":"0","PERIOD":"95.437","INCLINATION":"53.2157","ECCENTRICITY":"0.00010180","TLE_LINE1":"1 52357U 22045AC  23100.79977511  .00000860  00000-0  72095-4 0  9998","ARG_OF_PERICENTER":"98.8461","COUNTRY_CODE":"US","FILE":"3885363","MEAN_MOTION":"15.08843262","ELEMENT_SET_NO":"999","EPOCH":"2023-04-10T19:11:40.569504","CLASSIFICATION_TYPE":"U","MEAN_MOTION_DOT":"0.00000860","OBJECT_ID":"2022-045AC","DECAY_DATE":null,"OBJECT_NAME":"STARLINK-3821","REV_AT_EPOCH":"5517","MEAN_MOTION_DDOT":"0.0000000000000","TIME_SYSTEM":"UTC","CENTER_NAME":"EARTH","TLE_LINE2":"2 52357  53.2157 295.1049 0001018  98.8461 261.2646 15.08843262 55177","APOAPSIS":"540.440","BSTAR":"0.00007209500000","MEAN_ANOMALY":"261.2646","PERIAPSIS":"539.031","MEAN_ELEMENT_THEORY":"SGP4"}];
